GLOBALSTAR M001 [-]     
1 25162U 98008A   23349.62671661 -.00000092  00000+0  35631-4 0  9990
2 25162  52.0013 132.7090 0002401 145.2162 296.3498 12.38175169175635
GLOBALSTAR M004 [-]     
1 25163U 98008B   23349.15680036 -.00000039  00000+0  35965-3 0  9995
2 25163  52.0005 292.1000 0003004 136.2302 326.8222 12.63344580192169
GLOBALSTAR M002 [-]     
1 25164U 98008C   23348.82560433 -.00000090  00000+0 -25923-3 0  9998
2 25164  51.9981 180.1291 0001188 151.9393 208.1491 11.61497632120114
GLOBALSTAR M003 [-]     
1 25165U 98008D   23349.06741671  .00000012  00000+0  10779-2 0  9995
2 25165  51.9779 252.2143 0007265 267.9124 197.6267 12.11960449166513
GLOBALSTAR M006 [-]     
1 25307U 98023B   23349.62409179 -.00000096  00000+0 -41265-3 0  9995
2 25307  51.9906 144.8355 0003746 180.1035 261.5457 11.58157742153153
GLOBALSTAR M008 [-]     
1 25309U 98023D   23349.19756919 -.00000065  00000+0  24411-3 0  9995
2 25309  51.9991 352.5630 0002734  93.2051 347.3795 12.36033195169833
